NORAD_CAT_ID,OBJECT_NAME,OBJECT_TYPE,EPOCH,MEAN_MOTION,ECCENTRICITY,INCLINATION,RA_OF_ASC_NODE,ARG_OF_PERICENTER,MEAN_ANOMALY,BSTAR,MEAN_MOTION_DOT,MEAN_MOTION_DDOT,TLE_LINE0,TLE_LINE1,TLE_LINE2,SEMIMAJOR_AXIS,PERIOD,APOGEE,PERIGEE,DECAYED
54769.0,STARLINK-5404,PAYLOAD,2024-02-15 13:46:18,15.08829368,0.0001645,53.2173,185.0202,94.9513,265.1667,0.00012243,1.66e-05,0.0,0 STARLINK-5404,1 54769U 22175M   24046.57382151  .00001660  00000-0  12243-3 0  9994,2 54769  53.2173 185.0202 0001645  94.9513 265.1667 15.08829368 66228,6917.913,95.438,540.916,538.64,0.0
54769.0,STARLINK-5404,PAYLOAD,2024-02-15 16:57:04,15.0883718,0.0001321,53.2165,184.4275,107.0775,253.0362,1.5906e-05,-3.5e-07,0.0,0 STARLINK-5404,1 54769U 22175M   24046.70629959 -.00000035  00000-0  15906-4 0  9995,2 54769  53.2165 184.4275 0001321 107.0775 253.0362 15.08837180 64080,6917.889,95.438,540.668,538.84,0.0
54769.0,STARLINK-5404,PAYLOAD,2024-02-16 15:12:27,15.08847918,0.000126,53.2159,180.2638,93.81,266.3036,7.7643e-05,9.48e-06,0.0,0 STARLINK-5404,1 54769U 22175M   24047.63365064  .00000948  00000-0  77643-4 0  9990,2 54769  53.2159 180.2638 0001260  93.8100 266.3036 15.08847918 66386,6917.856,95.437,540.593,538.85,0.0
54769.0,STARLINK-5404,PAYLOAD,2024-02-16 18:23:13,15.08859317,0.0001307,53.2154,179.6702,94.9983,265.1158,1.5533e-05,-4.1e-07,0.0,0 STARLINK-5404,1 54769U 22175M   24047.76612409 -.00000041  00000-0  15533-4 0  9997,2 54769  53.2154 179.6702 0001307  94.9983 265.1158 15.08859317 64249,6917.821,95.436,540.591,538.782,0.0
54769.0,STARLINK-5404,PAYLOAD,2024-02-17 11:52:29,15.08833303,0.0001602,53.2163,176.3976,108.0627,252.0539,0.00012168,1.649e-05,0.0,0 STARLINK-5404,1 54769U 22175M   24048.49478041  .00001649  00000-0  12168-3 0  9994,2 54769  53.2163 176.3976 0001602 108.0627 252.0539 15.08833303 64353,6917.901,95.438,540.874,538.658,0.0
54769.0,STARLINK-5404,PAYLOAD,2024-02-17 15:03:15,15.088366,0.0001482,53.2164,175.8028,98.6753,261.4407,0.00015921,2.247e-05,0.0,0 STARLINK-5404,1 54769U 22175M   24048.62725944  .00002247  00000-0  15921-3 0  9991,2 54769  53.2164 175.8028 0001482  98.6753 261.4407 15.08836600 66539,6917.891,95.438,540.781,538.731,0.0
54769.0,STARLINK-5404,PAYLOAD,2024-02-18 11:43:15,15.08851222,0.0001496,53.2151,171.9396,91.0053,269.111,0.00018716,2.693e-05,0.0,0 STARLINK-5404,1 54769U 22175M   24049.48837290  .00002693  00000-0  18716-3 0  9994,2 54769  53.2151 171.9396 0001496  91.0053 269.1110 15.08851222 64503,6917.846,95.437,540.746,538.676,0.0
54769.0,STARLINK-5404,PAYLOAD,2024-02-18 14:54:01,15.08857265,0.0001454,53.2159,171.345,89.8688,270.2471,0.00032204,4.843e-05,0.0,0 STARLINK-5404,1 54769U 22175M   24049.62084991  .00004843  00000-0  32204-3 0  9999,2 54769  53.2159 171.3450 0001454  89.8688 270.2471 15.08857265 66686,6917.828,95.436,540.698,538.687,0.0
54769.0,STARLINK-5404,PAYLOAD,2024-02-19 11:34:03,15.0883361,0.0001208,53.2156,167.4787,97.7529,262.36,-6.3415e-05,-1.297e-05,0.0,0 STARLINK-5404,1 54769U 22175M   24050.48198058 -.00001297  00000-0 -63415-4 0  9996,2 54769  53.2156 167.4787 0001208  97.7529 262.3600 15.08833610 64650,6917.9,95.438,540.601,538.929,0.0
54769.0,STARLINK-5404,PAYLOAD,2024-02-19 14:44:49,15.08836447,0.0001274,53.2157,166.884,94.9259,265.1879,8.9926e-06,-1.45e-06,0.0,0 STARLINK-5404,1 54769U 22175M   24050.61446004 -.00000145  00000-0  89926-5 0  9994,2 54769  53.2157 166.8840 0001274  94.9259 265.1879 15.08836447 66838,6917.891,95.438,540.638,538.875,0.0
54769.0,STARLINK-5404,PAYLOAD,2024-02-20 13:00:13,15.08835824,0.0001274,53.2157,162.722,99.5044,260.6092,4.3683e-05,4.07e-06,0.0,0 STARLINK-5404,1 54769U 22175M   24051.54182487  .00000407  00000-0  43683-4 0  9998,2 54769  53.2157 162.7220 0001274  99.5044 260.6092 15.08835824 66978,6917.893,95.438,540.639,538.877,0.0
54769.0,STARLINK-5404,PAYLOAD,2024-02-21 14:26:23,15.08852007,0.0001297,53.2156,157.9645,101.2079,258.9059,0.00046646,7.146e-05,0.0,0 STARLINK-5404,1 54769U 22175M   24052.60166218  .00007146  00000-0  46646-3 0  9998,2 54769  53.2156 157.9645 0001297 101.2079 258.9059 15.08852007 67132,6917.844,95.437,540.606,538.811,0.0
54769.0,STARLINK-5404,PAYLOAD,2024-02-22 12:41:47,15.08842959,0.0001308,53.2166,153.8018,100.5785,259.5355,0.00010824,1.435e-05,0.0,0 STARLINK-5404,1 54769U 22175M   24053.52902403  .00001435  00000-0  10824-3 0  9998,2 54769  53.2166 153.8018 0001308 100.5785 259.5355 15.08842959 65118,6917.871,95.437,540.641,538.831,0.0
54769.0,STARLINK-5404,PAYLOAD,2024-02-22 14:17:10,15.08845888,0.0001357,53.2164,153.5067,93.7535,266.3613,0.0001872,2.693e-05,0.0,0 STARLINK-5404,1 54769U 22175M   24053.59526378  .00002693  00000-0  18720-3 0  9998,2 54769  53.2164 153.5067 0001357  93.7535 266.3613 15.08845888 67284,6917.862,95.437,540.666,538.789,0.0
54769.0,STARLINK-5404,PAYLOAD,2024-02-23 12:32:34,15.08846162,0.0001383,53.2158,149.342,90.5653,269.5498,0.00010029,1.309e-05,0.0,0 STARLINK-5404,1 54769U 22175M   24054.52262244  .00001309  00000-0  10029-3 0  9998,2 54769  53.2158 149.3420 0001383  90.5653 269.5498 15.08846162 67426,6917.862,95.437,540.683,538.77,0.0
54769.0,STARLINK-5404,PAYLOAD,2024-02-24 12:23:22,15.08840568,0.0001622,53.2172,144.878,102.1413,257.976,8.2167e-05,1.02e-05,0.0,0 STARLINK-5404,1 54769U 22175M   24055.51622759  .00001020  00000-0  82167-4 0  9992,2 54769  53.2172 144.8780 0001622 102.1413 257.9760 15.08840568 65415,6917.879,95.438,540.866,538.622,0.0
54769.0,STARLINK-5404,PAYLOAD,2024-02-24 15:34:08,15.08841845,0.0001465,53.217,144.2836,97.5186,262.5973,7.4173e-05,8.93e-06,0.0,0 STARLINK-5404,1 54769U 22175M   24055.64870715  .00000893  00000-0  74173-4 0  9998,2 54769  53.2170 144.2836 0001465  97.5186 262.5973 15.08841845 67596,6917.875,95.437,540.753,538.726,0.0
54769.0,STARLINK-5404,PAYLOAD,2024-02-25 12:14:08,15.08854851,0.0001467,53.2157,140.418,95.489,264.627,0.0002502,3.698e-05,0.0,0 STARLINK-5404,1 54769U 22175M   24056.50982165  .00003698  00000-0  25020-3 0  9999,2 54769  53.2157 140.4180 0001467  95.4890 264.6270 15.08854851 65561,6917.835,95.437,540.715,538.685,0.0
54769.0,STARLINK-5404,PAYLOAD,2024-02-26 12:04:56,15.08834048,0.0001509,53.2157,135.9581,94.0908,266.0257,6.8691e-05,8.05e-06,0.0,0 STARLINK-5404,1 54769U 22175M   24057.50343485  .00000805  00000-0  68691-4 0  9995,2 54769  53.2157 135.9581 0001509  94.0908 266.0257 15.08834048 65711,6917.899,95.438,540.807,538.72,0.0
54769.0,STARLINK-5404,PAYLOAD,2024-02-26 15:15:43,15.08835467,0.0001447,53.2152,135.363,91.0854,269.0304,7.7192e-05,9.41e-06,0.0,0 STARLINK-5404,1 54769U 22175M   24057.63591461  .00000941  00000-0  77192-4 0  9995,2 54769  53.2152 135.3630 0001447  91.0854 269.0304 15.08835467 67896,6917.894,95.438,540.76,538.758,0.0
54769.0,STARLINK-5404,PAYLOAD,2024-02-27 11:55:43,15.08851951,0.0001479,53.2152,131.4993,90.1894,269.9267,0.00033598,5.065e-05,0.0,0 STARLINK-5404,1 54769U 22175M   24058.49702870  .00005065  00000-0  33598-3 0  9991,2 54769  53.2152 131.4993 0001479  90.1894 269.9267 15.08851951 65862,6917.844,95.437,540.732,538.686,0.0
54769.0,STARLINK-5404,PAYLOAD,2024-02-27 21:28:02,15.08844749,0.0001441,53.2153,129.7158,78.2604,281.855,0.00020069,2.908e-05,0.0,0 STARLINK-5404,1 54769U 22175M   24058.89446985  .00002908  00000-0  20069-3 0  9999,2 54769  53.2153 129.7158 0001441  78.2604 281.8550 15.08844749 68083,6917.866,95.437,540.728,538.734,0.0
54769.0,STARLINK-5404,PAYLOAD,2024-02-28 03:49:34,15.08842365,0.00015,53.2155,128.5269,82.5513,277.5649,0.00019051,2.745e-05,0.0,0 STARLINK-5404,1 54769U 22175M   24059.15943196  .00002745  00000-0  19051-3 0  9993,2 54769  53.2155 128.5269 0001500  82.5513 277.5649 15.08842365 65965,6917.873,95.437,540.776,538.7,0.0
54769.0,STARLINK-5404,PAYLOAD,2024-02-28 11:46:30,15.08839273,0.0001537,53.2156,127.0399,85.296,274.8207,0.00013044,1.789e-05,0.0,0 STARLINK-5404,1 54769U 22175M   24059.49063320  .00001789  00000-0  13044-3 0  9995,2 54769  53.2156 127.0399 0001537  85.2960 274.8207 15.08839273 68170,6917.883,95.438,540.811,538.684,0.0
54769.0,STARLINK-5404,PAYLOAD,2024-02-29 13:12:41,15.08843339,0.0001489,53.2168,122.2817,87.0941,273.0222,2.7713e-05,1.53e-06,0.0,0 STARLINK-5404,1 54769U 22175M   24060.55047509  .00000153  00000-0  27713-4 0  9998,2 54769  53.2168 122.2817 0001489  87.0941 273.0222 15.08843339 66174,6917.87,95.437,540.765,538.705,0.0
54769.0,STARLINK-5404,PAYLOAD,2024-02-29 21:09:36,15.08840669,0.0001447,53.2164,120.7948,82.6738,277.4418,1.1457e-05,-1.06e-06,0.0,0 STARLINK-5404,1 54769U 22175M   24060.88167696 -.00000106  00000-0  11457-4 0  9991,2 54769  53.2164 120.7948 0001447  82.6738 277.4418 15.08840669 68380,6917.878,95.438,540.744,538.742,0.0
54769.0,STARLINK-5404,PAYLOAD,2024-03-01 11:28:05,15.08840495,0.0001679,53.2165,118.1181,90.58,269.5384,0.00010449,1.375e-05,0.0,0 STARLINK-5404,1 54769U 22175M   24061.47783610  .00001375  00000-0  10449-3 0  9994,2 54769  53.2165 118.1181 0001679  90.5800 269.5384 15.08840495 68477,6917.879,95.438,540.905,538.582,0.0
54769.0,STARLINK-5404,PAYLOAD,2024-03-02 09:43:28,15.08850813,0.0001477,53.2161,113.9548,86.5514,273.5647,0.00014389,2.003e-05,0.0,0 STARLINK-5404,1 54769U 22175M   24062.40518758  .00002003  00000-0  14389-3 0  9993,2 54769  53.2161 113.9548 0001477  86.5514 273.5647 15.08850813 66454,6917.847,95.437,540.734,538.691,0.0
54769.0,STARLINK-5404,PAYLOAD,2024-03-03 09:34:16,15.08838088,0.0001455,53.2163,109.4943,81.0607,279.055,4.6814e-05,4.57e-06,0.0,0 STARLINK-5404,1 54769U 22175M   24063.39879772  .00000457  00000-0  46814-4 0  9998,2 54769  53.2163 109.4943 0001455  81.0607 279.0550 15.08838088 66605,6917.886,95.438,540.758,538.745,0.0
54769.0,STARLINK-5404,PAYLOAD,2024-03-04 03:03:28,15.08868551,0.0001778,53.2171,106.2222,66.5014,293.6165,0.00016764,2.383e-05,0.0,0 STARLINK-5404,1 54769U 22175M   24064.12740798  .00002383  00000-0  16764-3 0  9995,2 54769  53.2171 106.2222 0001778  66.5014 293.6165 15.08868551 66711,6917.793,95.436,540.888,538.428,0.0
